{"type": "FeatureCollection", "features": [ {"type": "Feature", "properties": {"norad_id": 66641, "name": "STARLINK-35923", "group": "last-30-days", "lat": 7.163920392293793, "lon": -179.08007023673352, "alt_km": 419.10472260204006, "timestamp": "2025-12-15T04:01:19.180488+00:00", "meta": {"OBJECT_NAME": "STARLINK-35923", "OBJECT_ID": "2025-271AA", "EPOCH": "2025-12-14T06:00:02.999808", "MEAN_MOTION": 15.49395573, "ECCENTRICITY": 0.00012331, "INCLINATION": 53.1601, "RA_OF_ASC_NODE": 179.901, "ARG_OF_PERICENTER": 93.6473, "MEAN_ANOMALY": 195.0122, "EPHEMERIS_TYPE": 0, "CLASSIFICATION_TYPE": "U", "NORAD_CAT_ID": 66641, "ELEMENT_SET_NO": 999, "REV_AT_EPOCH": 448, "BSTAR": -0.0024559898, "MEAN_MOTION_DOT": -0.00135118, "MEAN_MOTION_DDOT": 0}, "tle": {"line1": "1 66641U 25271AA  25348.25003472 -.00135118  00000+0 -24560-2 0  9994", "line2": "2 66641  53.1601 179.9010 0001233  93.6473 195.0122 15.49395573  4486"}}, "geometry": {"type": "Point", "coordinates": [-179.08007023673352, 7.163920392293793]}}, {"type": "Feature", "properties": {"norad_id": 66642, "name": "STARLINK-35926", "group": "last-30-days", "lat": 5.466048205526992, "lon": 179.6320699519016, "alt_km": 419.67110712648537, "timestamp": "2025-12-15T04:01:19.180499+00:00", "meta": {"OBJECT_NAME": "STARLINK-35926", "OBJECT_ID": "2025-271AB", "EPOCH": "2025-12-14T06:00:02.999808", "MEAN_MOTION": 15.49437276, "ECCENTRICITY": 7.667e-05, "INCLINATION": 53.16, "RA_OF_ASC_NODE": 179.9058, "ARG_OF_PERICENTER": 69.1254, "MEAN_ANOMALY": 217.6145, "EPHEMERIS_TYPE": 0, "CLASSIFICATION_TYPE": "U", "NORAD_CAT_ID": 66642, "ELEMENT_SET_NO": 999, "REV_AT_EPOCH": 424, "BSTAR": -0.0045510295, "MEAN_MOTION_DOT": -0.00246837, "MEAN_MOTION_DDOT": 0}, "tle": {"line1": "1 66642U 25271AB  25348.25003472 -.00246837  00000+0 -45510-2 0  9994", "line2": "2 66642  53.1600 179.9058 0000766  69.1254 217.6145 15.49437276  4240"}}, "geometry": {"type": "Point", "coordinates": [179.6320699519016, 5.466048205526992]}}, {"type": "Feature", "properties": {"norad_id": 66643, "name": "STARLINK-35918", "group": "last-30-days", "lat": 2.579411875899674, "lon": 177.46134998998775, "alt_km": 419.516351215766, "timestamp": "2025-12-15T04:01:19.180511+00:00", "meta": {"OBJECT_NAME": "STARLINK-35918", "OBJECT_ID": "2025-271AC", "EPOCH": "2025-12-14T06:00:02.999808", "MEAN_MOTION": 15.49352268, "ECCENTRICITY": 0.00011636, "INCLINATION": 53.1601, "RA_OF_ASC_NODE": 179.914, "ARG_OF_PERICENTER": 78.387, "MEAN_ANOMALY": 204.542, "EPHEMERIS_TYPE": 0, "CLASSIFICATION_TYPE": "U", "NORAD_CAT_ID": 66643, "ELEMENT_SET_NO": 999, "REV_AT_EPOCH": 448, "BSTAR": -0.001674875, "MEAN_MOTION_DOT": -0.00092643, "MEAN_MOTION_DDOT": 0}, "tle": {"line1": "1 66643U 25271AC  25348.25003472 -.00092643  00000+0 -16749-2 0  9991", "line2": "2 66643  53.1601 179.9140 0001163  78.3870 204.5420 15.49352268  4486"}}, "geometry": {"type": "Point", "coordinates": [177.46134998998775, 2.579411875899674]}}, {"type": "Feature", "properties": {"norad_id": 66644, "name": "STARLINK-35938", "group": "last-30-days", "lat": 4.063826866430518, "lon": 178.57537436664447, "alt_km": 419.6027998707332, "timestamp": "2025-12-15T04:01:19.180521+00:00", "meta": {"OBJECT_NAME": "STARLINK-35938", "OBJECT_ID": "2025-271AD", "EPOCH": "2025-12-14T06:00:02.999808", "MEAN_MOTION": 15.49344318, "ECCENTRICITY": 6.226e-05, "INCLINATION": 53.1599, "RA_OF_ASC_NODE": 179.91, "ARG_OF_PERICENTER": 83.1205, "MEAN_ANOMALY": 201.7792, "EPHEMERIS_TYPE": 0, "CLASSIFICATION_TYPE": "U", "NORAD_CAT_ID": 66644, "ELEMENT_SET_NO": 999, "REV_AT_EPOCH": 448, "BSTAR": -0.0022335292, "MEAN_MOTION_DOT": -0.00122883, "MEAN_MOTION_DDOT": 0}, "tle": {"line1": "1 66644U 25271AD  25348.25003472 -.00122883  00000+0 -22335-2 0  9990", "line2": "2 66644  53.1599 179.9100 0000622  83.1205 201.7792 15.49344318  4482"}}, "geometry": {"type": "Point", "coordinates": [178.57537436664447, 4.063826866430518]}}, {"type": "Feature", "properties": {"norad_id": 66645, "name": "SHENZHOU-22", "group": "last-30-days", "lat": 39.27502926492504, "lon": 114.14583784019176, "alt_km": 380.23774740650424, "timestamp": "2025-12-15T04:01:19.180533+00:00", "meta": {"OBJECT_NAME": "SHENZHOU-22", "OBJECT_ID": "2025-272A", "EPOCH": "2025-12-14T07:34:58.944000", "MEAN_MOTION": 15.59258965, "ECCENTRICITY": 0.00080649, "INCLINATION": 41.4685, "RA_OF_ASC_NODE": 7.139, "ARG_OF_PERICENTER": 44.1445, "MEAN_ANOMALY": 316.0035, "EPHEMERIS_TYPE": 0, "CLASSIFICATION_TYPE": "U", "NORAD_CAT_ID": 66645, "ELEMENT_SET_NO": 999, "REV_AT_EPOCH": 26357, "BSTAR": 0.00032167744, "MEAN_MOTION_DOT": 0.00025793, "MEAN_MOTION_DDOT": 0}, "tle": {"line1": "1 66645U 25272A   25348.31596000  .00025793  00000+0  32168-3 0  9999", "line2": "2 66645  41.4685   7.1390 0008064  44.1445 316.0035 15.59258965263573"}}, "geometry": {"type": "Point", "coordinates": [114.14583784019176, 39.27502926492504]}}, {"type": "Feature", "properties": {"norad_id": 66647, "name": "COSMOS 2597 (RODNIK-S 22)", "group": "last-30-days", "lat": 21.185162256504317, "lon": 102.01447973400177, "alt_km": 1501.41895475999, "timestamp": "2025-12-15T04:01:19.180545+00:00", "meta": {"OBJECT_NAME": "COSMOS 2597 (RODNIK-S 22)", "OBJECT_ID": "2025-273A", "EPOCH": "2025-12-14T07:50:11.438592", "MEAN_MOTION": 12.41951765, "ECCENTRICITY": 0.0007807, "INCLINATION": 82.4988, "RA_OF_ASC_NODE": 285.4634, "ARG_OF_PERICENTER": 284.4966, "MEAN_ANOMALY": 75.5247, "EPHEMERIS_TYPE": 0, "CLASSIFICATION_TYPE": "U", "NORAD_CAT_ID": 66647, "ELEMENT_SET_NO": 999, "REV_AT_EPOCH": 233, "BSTAR": 0.00012719958, "MEAN_MOTION_DOT": 2.7e-07, "MEAN_MOTION_DDOT": 0}, "tle": {"line1": "1 66647U 25273A   25348.32652128  .00000027  00000+0  12720-3 0  9992", "line2": "2 66647  82.4988 285.4634 0007807 284.4966  75.5247 12.41951765  2332"}}, "geometry": {"type": "Point", "coordinates": [102.01447973400177, 21.185162256504317]}}, {"type": "Feature", "properties": {"norad_id": 66648, "name": "COSMOS 2598 (RODNIK-S 23)", "group": "last-30-days", "lat": -25.328880686100696, "lon": 108.51221134755342, "alt_km": 1492.6663298072353, "timestamp": "2025-12-15T04:01:19.180556+00:00", "meta": {"OBJECT_NAME": "COSMOS 2598 (RODNIK-S 23)", "OBJECT_ID": "2025-273B", "EPOCH": "2025-12-14T07:36:20.712096", "MEAN_MOTION": 12.43233537, "ECCENTRICITY": 0.00079746, "INCLINATION": 82.5028, "RA_OF_ASC_NODE": 285.4681, "ARG_OF_PERICENTER": 233.1909, "MEAN_ANOMALY": 126.844, "EPHEMERIS_TYPE": 0, "CLASSIFICATION_TYPE": "U", "NORAD_CAT_ID": 66648, "ELEMENT_SET_NO": 999, "REV_AT_EPOCH": 233, "BSTAR": 0.00017761866, "MEAN_MOTION_DOT": 3.5e-07, "MEAN_MOTION_DDOT": 0}, "tle": {"line1": "1 66648U 25273B   25348.31690639  .00000035  00000+0  17762-3 0  9991", "line2": "2 66648  82.5028 285.4681 0007974 233.1909 126.8440 12.43233537  2331"}}, "geometry": {"type": "Point", "coordinates": [108.51221134755342, -25.328880686100696]}}, {"type": "Feature", "properties": {"norad_id": 66649, "name": "COSMOS 2599 (RODNIK-S 24)", "group": "last-30-days", "lat": 46.48792292383807, "lon": 96.99208829393207, "alt_km": 1501.347370935132, "timestamp": "2025-12-15T04:01:19.180566+00:00", "meta": {"OBJECT_NAME": "COSMOS 2599 (RODNIK-S 24)", "OBJECT_ID": "2025-273C", "EPOCH": "2025-12-14T07:57:40.763520", "MEAN_MOTION": 12.41150966, "ECCENTRICITY": 0.00063123, "INCLINATION": 82.5045, "RA_OF_ASC_NODE": 285.4803, "ARG_OF_PERICENTER": 274.8293, "MEAN_ANOMALY": 85.2065, "EPHEMERIS_TYPE": 0, "CLASSIFICATION_TYPE": "U", "NORAD_CAT_ID": 66649, "ELEMENT_SET_NO": 999, "REV_AT_EPOCH": 233, "BSTAR": -1.379034e-06, "MEAN_MOTION_DOT": 1e-07, "MEAN_MOTION_DDOT": 0}, "tle": {"line1": "1 66649U 25273C   25348.33172180  .00000010  00000+0 -13790-5 0  9993", "line2": "2 66649  82.5045 285.4803 0006312 274.8293  85.2065 12.41150966  2333"}}, "geometry": {"type": "Point", "coordinates": [96.99208829393207, 46.48792292383807]}}, {"type": "Feature", "properties": {"norad_id": 66650, "name": "BEE-1000", "group": "last-30-days", "lat": 1.3221489355675442, "lon": -83.86935173741476, "alt_km": 599.070157401663, "timestamp": "2025-12-15T04:01:19.180577+00:00", "meta": {"OBJECT_NAME": "BEE-1000", "OBJECT_ID": "2025-274A", "EPOCH": "2025-12-14T05:28:37.325856", "MEAN_MOTION": 14.91670409, "ECCENTRICITY": 0.00104042, "INCLINATION": 97.7389, "RA_OF_ASC_NODE": 275.3885, "ARG_OF_PERICENTER": 245.7583, "MEAN_ANOMALY": 114.2549, "EPHEMERIS_TYPE": 0, "CLASSIFICATION_TYPE": "U", "NORAD_CAT_ID": 66650, "ELEMENT_SET_NO": 999, "REV_AT_EPOCH": 262, "BSTAR": 0.00024818895, "MEAN_MOTION_DOT": 2.441e-05, "MEAN_MOTION_DDOT": 0}, "tle": {"line1": "1 66650U 25274A   25348.22820979  .00002441  00000+0  24819-3 0  9991", "line2": "2 66650  97.7389 275.3885 0010404 245.7583 114.2549 14.91670409  2626"}}, "geometry": {"type": "Point", "coordinates": [-83.86935173741476, 1.3221489355675442]}}, {"type": "Feature", "properties": {"norad_id": 66651, "name": "2025-274B", "group": "last-30-days", "lat": 7.489057910632337, "lon": -84.71212254811478, "alt_km": 598.6160014400139, "timestamp": "2025-12-15T04:01:19.180587+00:00", "meta": {"OBJECT_NAME": "2025-274B", "OBJECT_ID": "2025-274B", "EPOCH": "2025-12-14T07:03:40.265856", "MEAN_MOTION": 14.91816586, "ECCENTRICITY": 0.00105996, "INCLINATION": 97.7385, "RA_OF_ASC_NODE": 275.4548, "ARG_OF_PERICENTER": 244.3911, "MEAN_ANOMALY": 115.6213, "EPHEMERIS_TYPE": 0, "CLASSIFICATION_TYPE": "U", "NORAD_CAT_ID": 66651, "ELEMENT_SET_NO": 999, "REV_AT_EPOCH": 263, "BSTAR": 0.0004807092, "MEAN_MOTION_DOT": 4.8e-05, "MEAN_MOTION_DDOT": 0}, "tle": {"line1": "1 66651U 25274B   25348.29421604  .00004800  00000+0  48071-3 0  9998", "line2": "2 66651  97.7385 275.4548 0010599 244.3911 115.6213 14.91816586  2637"}}, "geometry": {"type": "Point", "coordinates": [-84.71212254811478, 7.489057910632337]}}]}